NUSAT-1 (FRESCO)        
1 41557U 16033B   22006.85440929  .00004812  00000+0  16315-3 0  9999
2 41557  97.3921 104.8227 0011098 227.3737 241.0196 15.30973436312638
BEESAT-4                
1 41619U 16040W   22006.71166838  .00003062  00000+0  11775-3 0  9996
2 41619  97.2428  61.9623 0009524 341.3257  18.7631 15.27112227296011
CAS-2T & KS-1Q          
1 41847U 16066G   22006.75591385  .00000141  00000+0  32043-4 0  9997
2 41847  98.5754  71.4470 0364237 333.4724  24.8216 14.38318240271106
NAYIF-1 (EO-88)         
1 42017U 17008BX  22006.70974985  .00003647  00000+0  12808-3 0  9990
2 42017  97.2926  75.5992 0007245 102.9457 257.2593 15.30003237272316
ZHUHAI-1 02 (CAS-4B)    
1 42759U 17034B   22006.85228019  .00001127  00000+0  80050-4 0  9994
2 42759  43.0153 142.5226 0008544 347.0217 147.7417 15.10693685251904
ZHUHAI-1 01 (CAS-4A)    
1 42761U 17034D   22006.76696602  .00001238  00000+0  86416-4 0  9999
2 42761  43.0162 141.8972 0008939 348.9162 154.4690 15.10781695251899
MAX VALIER SAT          
1 42778U 17036P   22006.90765528  .00001692  00000+0  71292-4 0  9999
2 42778  97.2295  53.6481 0011814 169.8487 190.2991 15.24612285252274
RADFXSAT (FOX-1B)       
1 43017U 17073E   22006.66238673  .00001727  00000+0  13660-3 0  9999
2 43017  97.6918 267.4411 0253040 357.3539   2.6318 14.80132298223174
FOX-1D (AO-92)          
1 43137U 18004AC  22006.83827078  .00002246  00000+0  88902-4 0  9998
2 43137  97.3878  83.7015 0007638 203.9296 156.1589 15.26462203221675
DIWATA-2B               
1 43678U 18084H   22006.82264075  .00000072  00000+0  12893-4 0  9998
2 43678  97.9475 138.4922 0011341  97.4273 262.8222 14.91872995173754
ES'HAIL 2               
1 43700U 18090A   22006.80952294  .00000141  00000+0  00000+0 0  9995
2 43700   0.0136  60.8445 0001897 256.9448 105.7668  1.00272643 11400
FOX-1CLIFF (AO-95)      
1 43770U 18099N   22006.85812510  .00000793  00000+0  76288-4 0  9991
2 43770  97.6432  77.3304 0015865  97.4169 262.8856 14.95650751168857
ITASAT 1                
1 43786U 18099AE  22006.80676464  .00001011  00000+0  95261-4 0  9995
2 43786  97.6458  78.0988 0016670  90.8949 269.4182 14.95903474168887
JY1SAT (JO-97)          
1 43803U 18099AX  22006.73324837  .00001116  00000+0  10374-3 0  9998
2 43803  97.6417  77.7639 0016531  90.9706 269.3410 14.96218748168886
UWE-4                   
1 43880U 18111E   22006.71303744  .00000268  00000+0  28139-4 0  9996
2 43880  97.6790 275.8657 0012853 136.6625 223.5610 14.97249768165492
NEXUS (FO-99)           
1 43937U 19003F   22006.68475491  .00002747  00000+0  10506-3 0  9997
2 43937  97.1523  46.5877 0022723  15.6043 344.5892 15.27166573165265
PSAT2 (NO-104)          
1 44354U 19036R   22006.84815960  .00014562  00000+0  17024-3 0  9994
2 44354  28.5260 202.8826 0291874 334.6005  24.0497 15.22460080139901
BRICSAT2 (NO-103)       
1 44355U 19036S   22006.56646509  .00067563 -50457-5  49500-3 0  9996
2 44355  28.5230 115.4446 0186837 116.5430 245.4454 15.51581298140740
JAISAT-1                
1 44419U 19038F   22006.91331993  .00002360  00000+0  13029-3 0  9999
2 44419  97.6168 336.2976 0019788 335.2369  24.7911 15.14786507138584
DUCHIFAT-3              
1 44854U 19089C   22006.26594363  .00001549  00000+0  12864-3 0  9992
2 44854  36.9646 340.9131 0008302 333.8560  26.1748 14.99949600113568
CAS-6 (TO-108)          
1 44881U 19093C   22006.76512418  .00000219  00000+0  34671-4 0  9997
2 44881  97.9094  88.2123 0015089 357.9125   2.2015 14.81537434110837
RS-44 & BREEZE-KM R/B   
1 44909U 19096E   22006.90098500  .00000023  00000+0  50764-4 0  9992
2 44909  82.5224 337.6246 0217087 337.7610  21.4182 12.79711970 94841
ORBITAL FACTORY 2 (OF-2)
1 45113U 19071C   22006.61199513  .00006222  00000+0  17168-3 0  9994
2 45113  51.6411 130.8729 0010678 308.7387  51.2642 15.38404068108415
HUSKYSAT-1 (HO-107)     
1 45119U 19071J   22006.89106905  .00004839  00000+0  13670-3 0  9999
2 45119  51.6402 128.9730 0010175 306.5489  53.4558 15.38214444108453
BY70-2                  
1 45857U 20042B   22006.83225960  .00002681  00000+0  37991-3 0  9990
2 45857  97.9703  85.4082 0009434 275.9475  84.0630 14.77838712 81572
SALSAT                  
1 46495U 20068K   22006.90234115  .00001467  00000+0  11104-3 0  9996
2 46495  97.7119 308.4195 0018255 103.6017 256.7243 15.03772030 69904
BY70-3                  
1 46839U 20079N   22006.95590486  .00006943  00000+0  20023-3 0  9995
2 46839  97.2209  81.8042 0006335 182.0372 294.7450 15.36000856 65415
RADFXSAT-2 (AO-109)     
1 47311U 21002C   22006.86350523  .00001638  00000+0  80662-4 0  9996
2 47311  60.6859 249.2104 0030185 151.2666 209.0092 15.22746260 53834
UVSQ-SAT                
1 47438U 21006AB  22006.62354913  .00001286  00000+0  74516-4 0  9991
2 47438  97.4620  68.9879 0013994 113.6817 246.5885 15.13878236 52780
DIY-1 (ARDUIQUBE)       
1 47963U 21022AH  22006.68372505  .00003990  00000+0  25591-3 0  9997
2 47963  97.5450 270.4140 0018457 334.8277  25.2051 15.08939856 42520
XW-3 (CAS-9)            
1 50466U 21131B   22006.79578638 -.00000007  00000+0  12265-4 0  9999
2 50466  98.5975  84.0261 0003444 269.7660  90.3127 14.38435547  1678
